    "name": "IRIDIUM 153",
    "tle1": "1 43078U 17083J   25218.84730786  .00000049  00000+0  10465-4 0  9994",
    "tle2": "2 43078  86.3920  61.8747 0001977  77.1251 283.0165 14.34217425400228",
    "timestamp": 1754547907,
    "satNb": 153,
    "orbitalPlane": 1,
    "status": "Operational",
    "launchdate": "2017-12-23",
    "launchvehicle": "Falcon 9 FT",
    "launchsite": "Vandenberg"
}, {
    "type": "Iridium NEXT",
    "name": "IRIDIUM 131",
    "tle1": "1 43079U 17083K   25218.67313914  .00000008  00000+0 -42600-5 0  9999",
    "tle2": "2 43079  86.3940  93.6596 0002159  82.9464 277.1977 14.34217432399027",
    "timestamp": 1754547907,
    "satNb": 131,
    "orbitalPlane": 2,
    "status": "Operational",
    "launchdate": "2017-12-23",
    "launchvehicle": "Falcon 9 FT",
    "launchsite": "Vandenberg"
}, {
    "type": "Iridium NEXT",
    "name": "IRIDIUM 144",
    "tle1": "1 43249U 18030A   25218.92341907  .00000106  00000+0  30796-4 0  9992",
    "tle2": "2 43249  86.3917  61.7792 0002170  91.3998 268.7446 14.34217958385095",
    "timestamp": 1754547907,
    "satNb": 144,
    "orbitalPlane": 1,
    "status": "Operational",
    "launchdate": "2018-03-30",
    "launchvehicle": "Falcon 9 B4",
    "launchsite": "Vandenberg"
}, {
    "type": "Iridium NEXT",
    "name": "IRIDIUM 149",
    "tle1": "1 43250U 18030B   25218.92976148 -.00000060  00000+0 -28502-4 0  9998",
    "tle2": "2 43250  86.3916  61.7469 0002043  91.4534 268.6896 14.34217556385118",
    "timestamp": 1754547907,
    "satNb": 149,
    "orbitalPlane": 1,
    "status": "Operational",
    "launchdate": "2018-03-30",
    "launchvehicle": "Falcon 9 B4",
    "launchsite": "Vandenberg"
}, {
    "type": "Iridium NEXT",
    "name": "IRIDIUM 157",
    "tle1": "1 43251U 18030C   25218.66971588  .00000044  00000+0  85393-5 0  9995",
    "tle2": "2 43251  86.3919  61.9021 0002320  85.0265 275.1196 14.34217724385052",
    "timestamp": 1754547907,
    "satNb": 157,
    "orbitalPlane": 1,
    "status": "Operational",
    "launchdate": "2018-03-30",
    "launchvehicle": "Falcon 9 B4",
    "launchsite": "Vandenberg"
}, {
    "type": "Iridium NEXT",
    "name": "IRIDIUM 140",
    "tle1": "1 43252U 18030D   25218.68874284  .00000013  00000+0 -23619-5 0  9993",
    "tle2": "2 43252  86.3918  61.9074 0001891  91.6249 268.5163 14.34217525385113",
    "timestamp": 1754547907,
    "satNb": 140,
    "orbitalPlane": 1,
    "status": "Operational",
    "launchdate": "2018-03-30",
    "launchvehicle": "Falcon 9 B4",
    "launchsite": "Vandenberg"
}, {
    "type": "Iridium NEXT",
    "name": "IRIDIUM 145",
    "tle1": "1 43253U 18030E   25218.67605789  .00000041  00000+0  77268-5 0  9994",
    "tle2": "2 43253  86.3919  61.8857 0002151  99.7086 260.4353 14.34217725385047",
    "timestamp": 1754547907,
    "satNb": 145,
    "orbitalPlane": 1,
    "status": "Operational",
    "launchdate": "2018-03-30",
    "launchvehicle": "Falcon 9 B4",
    "launchsite": "Vandenberg"
}, {
    "type": "Iridium NEXT",
    "name": "IRIDIUM 146",
    "tle1": "1 43254U 18030F   25218.93610406  .00000005  00000+0 -53906-5 0  9990",
    "tle2": "2 43254  86.3917  61.7899 0002031  98.7786 261.3640 14.34217477385092",
    "timestamp": 1754547907,
    "satNb": 146,
    "orbitalPlane": 1,
    "status": "Operational",
    "launchdate": "2018-03-30",
    "launchvehicle": "Falcon 9 B4",
    "launchsite": "Vandenberg"
}, {
    "type": "Iridium NEXT",
    "name": "IRIDIUM 148",
    "tle1": "1 43255U 18030G   25218.62531744  .00000019  00000+0 -13006-6 0  9997",
    "tle2": "2 43255  86.3919  61.9584 0002185  89.6584 270.4862 14.34217608385085",
    "timestamp": 1754547907,
    "satNb": 148,
    "orbitalPlane": 1,
    "status": "Operational",
    "launchdate": "2018-03-30",
    "launchvehicle": "Falcon 9 B4",
    "launchsite": "Vandenberg"
}, {
    "type": "Iridium NEXT",
    "name": "IRIDIUM 142",
    "tle1": "1 43256U 18030H   25218.94244683  .00000020  00000+0 -44834-7 0  9992",
    "tle2": "2 43256  86.3915  61.7261 0002119 102.4174 257.7259 14.34217594385091",
    "timestamp": 1754547907,
    "satNb": 142,
    "orbitalPlane": 1,
    "status": "Operational",
    "launchdate": "2018-03-30",
    "launchvehicle": "Falcon 9 B4",
    "launchsite": "Vandenberg"
}, {
    "type": "Iridium NEXT",
    "name": "IRIDIUM 150",
    "tle1": "1 43257U 18030J   25218.63165972  .00000032  00000+0  43628-5 0  9992",
    "tle2": "2 43257  86.3919  61.9624 0002060  95.0500 265.0931 14.34217631385075",
    "timestamp": 1754547907,
    "satNb": 150,
    "orbitalPlane": 1,
    "status": "Operational",
    "launchdate": "2018-03-30",
    "launchvehicle": "Falcon 9 B4",
    "launchsite": "Vandenberg"
}, {
    "type": "Iridium NEXT",
    "name": "IRIDIUM 143",
    "tle1": "1 43258U 18030K   25218.61263191  .00000059  00000+0  14130-4 0  9997",
    "tle2": "2 43258  86.3923  62.0508 0002116 101.3121 258.8313 14.34217824385007",
    "timestamp": 1754547907,
    "satNb": 143,
    "orbitalPlane": 1,
    "status": "Operational",
    "launchdate": "2018-03-30",
    "launchvehicle": "Falcon 9 B4",
    "launchsite": "Vandenberg"
}, {
    "type": "Iridium NEXT",
    "name": "IRIDIUM 161",
    "tle1": "1 43478U 18047C   25218.75363851  .00000159  00000+0  41401-4 0  9990",
    "tle2": "2 43478  86.4478 219.8021 0002360  83.5426 276.6044 14.43281581379787",
    "timestamp": 1754547907,
    "satNb": 161,
    "orbitalPlane": 6,
    "status": "Spare",
    "launchdate": "2018-05-22",
    "launchvehicle": "Falcon 9 B4",
    "launchsite": "Vandenberg"
}, {
    "type": "Iridium NEXT",
    "name": "IRIDIUM 152",
    "tle1": "1 43479U 18047D   25218.93420258  .00000142  00000+0  43776-4 0  9995",
    "tle2": "2 43479  86.3952 219.5873 0002191  87.0389 273.1057 14.34214454377447",
    "timestamp": 1754547907,
    "satNb": 152,
    "orbitalPlane": 6,
    "status": "Operational",
    "launchdate": "2018-05-22",
    "launchvehicle": "Falcon 9 B4",
    "launchsite": "Vandenberg"
}, {
    "type": "Iridium NEXT",
    "name": "IRIDIUM 147",
    "tle1": "1 43480U 18047E   25218.94053551  .00000006  00000+0 -49613-5 0  9993",
    "tle2": "2 43480  86.3956 219.5844 0002287  87.1826 272.9631 14.34217534377441",
    "timestamp": 1754547907,
    "satNb": 147,
    "orbitalPlane": 6,
    "status": "Operational",
    "launchdate": "2018-05-22",
    "launchvehicle": "Falcon 9 B4",
    "launchsite": "Vandenberg"
}, {
    "type": "Iridium NEXT",
    "name": "IRIDIUM 110",
    "tle1": "1 43481U 18047F   25218.94687745  .00000014  00000+0 -20032-5 0  9995",
    "tle2": "2 43481  86.3959 219.6654 0002296  77.3715 282.7737 14.34217597377437",
    "timestamp": 1754547907,
    "satNb": 110,
    "orbitalPlane": 6,
    "status": "Operational",
    "launchdate": "2018-05-22",
    "launchvehicle": "Falcon 9 B4",
    "launchsite": "Vandenberg"
}, {
    "type": "Iridium NEXT",
    "name": "IRIDIUM 162",
    "tle1": "1 43482U 18047G   25218.53935204  .00000154  00000+0  39825-4 0  9990",
    "tle2": "2 43482  86.4476 219.7863 0002198  82.0459 278.0991 14.43280351379749",
    "timestamp": 1754547907,
    "satNb": 162,
    "orbitalPlane": 6,
    "status": "Spare",
    "launchdate": "2018-05-22",
    "launchvehicle": "Falcon 9 B4",
    "launchsite": "Vandenberg"
}, {
    "type": "Iridium NEXT",
    "name": "IRIDIUM 160",
    "tle1": "1 43569U 18061A   25218.89271434  .00000028  00000+0  27602-5 0  9990",
    "tle2": "2 43569  86.4009 188.1089 0002318  80.9700 279.1759 14.34217509368327",
    "timestamp": 1754547907,
    "satNb": 160,
    "orbitalPlane": 5,
    "status": "Operational",
    "launchdate": "2018-07-25",
    "launchvehicle": "Falcon 9 B5",
    "launchsite": "Vandenberg"
}, {
    "type": "Iridium NEXT",
    "name": "IRIDIUM 166",
    "tle1": "1 43570U 18061B   25218.91808447  .00000019  00000+0 -41987-6 0  9999",
    "tle2": "2 43570  86.4009 188.0530 0002243  93.3922 266.7530 14.34217551368359",
    "timestamp": 1754547907,
    "satNb": 166,
    "orbitalPlane": 5,
    "status": "Operational",
    "launchdate": "2018-07-25",
    "launchvehicle": "Falcon 9 B5",
    "launchsite": "Vandenberg"
}, {
    "type": "Iridium NEXT",
    "name": "IRIDIUM 158",
    "tle1": "1 43571U 18061C   25218.88637106  .00000027  00000+0  26689-5 0  9997",
    "tle2": "2 43571  86.4009 188.0761 0002105  84.7187 275.4249 14.34217652368312",
    "timestamp": 1754547907,
    "satNb": 158,
    "orbitalPlane": 5,
    "status": "Operational",
    "launchdate": "2018-07-25",
    "launchvehicle": "Falcon 9 B5",
    "launchsite": "Vandenberg"
}, {
    "type": "Iridium NEXT",
    "name": "IRIDIUM 165",
    "tle1": "1 43572U 18061D   25218.91174077  .00000236  00000+0  77071-4 0  9997",
    "tle2": "2 43572  86.4010 188.1057 0002396  89.5779 270.5692 14.34218933368340",
    "timestamp": 1754547907,
    "satNb": 165,
    "orbitalPlane": 5,
    "status": "Operational",
    "launchdate": "2018-07-25",
    "launchvehicle": "Falcon 9 B5",
    "launchsite": "Vandenberg"
}, {
    "type": "Iridium NEXT",
    "name": "IRIDIUM 155",
    "tle1": "1 43573U 18061E   25218.94345365  .00000018  00000+0 -74356-6 0  9995",
    "tle2": "2 43573  86.4010 187.9777 0001859  88.9528 271.1881 14.34217543368315",
    "timestamp": 1754547907,
    "satNb": 155,
    "orbitalPlane": 5,
    "status": "Operational",
    "launchdate": "2018-07-25",
    "launchvehicle": "Falcon 9 B5",
    "launchsite": "Vandenberg"
}, {
    "type": "Iridium NEXT",
    "name": "IRIDIUM 154",
    "tle1": "1 43574U 18061F   25218.92442683  .00000029  00000+0  34084-5 0  9999",
    "tle2": "2 43574  86.4010 188.1032 0002276  86.7836 273.3621 14.34217165368366",
    "timestamp": 1754547907,
    "satNb": 154,
    "orbitalPlane": 5,
    "status": "Operational",
